[{"OBJECT_NAME":"STARLINK-3730","OBJECT_ID":"2022-029BD","EPOCH":"2026-03-09T10:37:01.135200","MEAN_MOTION":15.0883848,"ECCENTRICITY":0.00011822,"INCLINATION":53.2184,"RA_OF_ASC_NODE":80.2299,"ARG_OF_PERICENTER":99.5486,"MEAN_ANOMALY":260.564,"EPHEMERIS_TYPE":0,"CLASSIFICATION_TYPE":"U","NORAD_CAT_ID":52139,"ELEMENT_SET_NO":999,"REV_AT_EPOCH":22075,"BSTAR":-8.6509668e-5,"MEAN_MOTION_DOT":-1.664e-5,"MEAN_MOTION_DDOT":0},{"OBJECT_NAME":"FENGYUN 1C DEB","OBJECT_ID":"1999-025AEH","EPOCH":"2026-03-09T22:48:21.206880","MEAN_MOTION":14.8573293,"ECCENTRICITY":0.01077809,"INCLINATION":98.8499,"RA_OF_ASC_NODE":243.2798,"ARG_OF_PERICENTER":197.684,"MEAN_ANOMALY":322.9923,"EPHEMERIS_TYPE":0,"CLASSIFICATION_TYPE":"U","NORAD_CAT_ID":30418,"ELEMENT_SET_NO":999,"REV_AT_EPOCH":1886,"BSTAR":0.0011748472,"MEAN_MOTION_DOT":0.00011272,"MEAN_MOTION_DDOT":0}]
